{"fetched_at":"2026-03-29T16:36:15Z","count":15609,"tles":[{"name":"STARLINK-33558","line1":"1 63643U 25083K   26087.87223678  .00024512  00000+0  89672-3 0  9994","line2":"2 63643  43.0019 256.6186 0001519 284.2046  75.8636 15.27600886 53003","category":"Starlink"}]}